{
  "hospitals": [{
    "id": 1,
    "name": "Agimba",
    "address": "41732 Barnett Road",
    "city": "Richmond",
    "state": "Virginia",
    "zip": "23203",
    "phone": "804-437-7860"
  }, {
    "id": 2,
    "name": "Gabtune",
    "address": "8190 Kinsman Circle",
    "city": "Riverside",
    "state": "California",
    "zip": "92519",
    "phone": "951-898-1422"
  }, {
    "id": 3,
    "name": "Jatri",
    "address": "96 Fisk Avenue",
    "city": "Chicago",
    "state": "Illinois",
    "zip": "60686",
    "phone": "312-197-1891"
  }, {
    "id": 4,
    "name": "Skinte",
    "address": "77335 Sunnyside Junction",
    "city": "Chicago",
    "state": "Illinois",
    "zip": "60604",
    "phone": "312-707-5538"
  }, {
    "id": 5,
    "name": "Jabberbean",
    "address": "57 Messerschmidt Street",
    "city": "Dayton",
    "state": "Ohio",
    "zip": "45440",
    "phone": "937-937-3175"
  }, {
    "id": 6,
    "name": "Yodel",
    "address": "3 Namekagon Hill",
    "city": "Oklahoma City",
    "state": "Oklahoma",
    "zip": "73119",
    "phone": "405-255-8931"
  }, {
    "id": 7,
    "name": "Centizu",
    "address": "2216 Starling Plaza",
    "city": "Colorado Springs",
    "state": "Colorado",
    "zip": "80910",
    "phone": "719-305-3027"
  }, {
    "id": 8,
    "name": "Skibox",
    "address": "6 Merry Court",
    "city": "New Orleans",
    "state": "Louisiana",
    "zip": "70124",
    "phone": "504-868-3130"
  }, {
    "id": 9,
    "name": "LiveZ",
    "address": "78477 Jenifer Crossing",
    "city": "Suffolk",
    "state": "Virginia",
    "zip": "23436",
    "phone": "757-334-1933"
  }, {
    "id": 10,
    "name": "Yoveo",
    "address": "148 Vernon Pass",
    "city": "New York City",
    "state": "New York",
    "zip": "10039",
    "phone": "212-314-0716"
  }, {
    "id": 11,
    "name": "Zoomdog",
    "address": "90 Heath Junction",
    "city": "Fort Wayne",
    "state": "Indiana",
    "zip": "46814",
    "phone": "260-146-4689"
  }, {
    "id": 12,
    "name": "Quimba",
    "address": "46982 Arapahoe Place",
    "city": "Charleston",
    "state": "South Carolina",
    "zip": "29424",
    "phone": "843-684-7161"
  }, {
    "id": 13,
    "name": "Kwideo",
    "address": "93 Holy Cross Junction",
    "city": "Cambridge",
    "state": "Massachusetts",
    "zip": "02142",
    "phone": "857-826-1367"
  }, {
    "id": 14,
    "name": "Jaloo",
    "address": "6 Manufacturers Crossing",
    "city": "Modesto",
    "state": "California",
    "zip": "95354",
    "phone": "209-701-3737"
  }, {
    "id": 15,
    "name": "Jaxbean",
    "address": "04811 Oakridge Circle",
    "city": "Tulsa",
    "state": "Oklahoma",
    "zip": "74149",
    "phone": "918-933-1280"
  }, {
    "id": 16,
    "name": "Myworks",
    "address": "92 Pond Road",
    "city": "Metairie",
    "state": "Louisiana",
    "zip": "70033",
    "phone": "504-154-5650"
  }, {
    "id": 17,
    "name": "Realpoint",
    "address": "891 Kedzie Terrace",
    "city": "Denton",
    "state": "Texas",
    "zip": "76210",
    "phone": "972-562-2757"
  }, {
    "id": 18,
    "name": "Dabvine",
    "address": "30 Coleman Hill",
    "city": "Roanoke",
    "state": "Virginia",
    "zip": "24014",
    "phone": "540-528-7743"
  }, {
    "id": 19,
    "name": "Oyope",
    "address": "181 Melvin Junction",
    "city": "Buffalo",
    "state": "New York",
    "zip": "14233",
    "phone": "716-311-4384"
  }, {
    "id": 20,
    "name": "Kamba",
    "address": "9101 Old Gate Terrace",
    "city": "Miami",
    "state": "Florida",
    "zip": "33164",
    "phone": "786-940-8015"
  }, {
    "id": 21,
    "name": "Tavu",
    "address": "53198 Blackbird Avenue",
    "city": "San Rafael",
    "state": "California",
    "zip": "94913",
    "phone": "415-724-4677"
  }, {
    "id": 22,
    "name": "Jatri",
    "address": "5915 Rowland Street",
    "city": "Alhambra",
    "state": "California",
    "zip": "91841",
    "phone": "626-658-0556"
  }, {
    "id": 23,
    "name": "BlogXS",
    "address": "0751 Crownhardt Circle",
    "city": "Washington",
    "state": "District of Columbia",
    "zip": "20420",
    "phone": "202-260-3888"
  }, {
    "id": 24,
    "name": "Feedbug",
    "address": "63 Center Junction",
    "city": "Miami",
    "state": "Florida",
    "zip": "33164",
    "phone": "786-570-9947"
  }, {
    "id": 25,
    "name": "Wikizz",
    "address": "0995 Del Sol Trail",
    "city": "San Jose",
    "state": "California",
    "zip": "95138",
    "phone": "408-118-9676"
  }, {
    "id": 26,
    "name": "Gabtype",
    "address": "3 Leroy Avenue",
    "city": "Washington",
    "state": "District of Columbia",
    "zip": "20392",
    "phone": "202-838-2422"
  }, {
    "id": 27,
    "name": "Twimbo",
    "address": "9145 Anthes Road",
    "city": "Washington",
    "state": "District of Columbia",
    "zip": "20409",
    "phone": "202-502-1135"
  }, {
    "id": 28,
    "name": "Thoughtbeat",
    "address": "8703 Golf Pass",
    "city": "Reading",
    "state": "Pennsylvania",
    "zip": "19610",
    "phone": "610-292-8559"
  }, {
    "id": 29,
    "name": "Agivu",
    "address": "598 Clyde Gallagher Parkway",
    "city": "Norfolk",
    "state": "Virginia",
    "zip": "23509",
    "phone": "757-879-1098"
  }, {
    "id": 30,
    "name": "Jabbersphere",
    "address": "9 Spohn Alley",
    "city": "Dayton",
    "state": "Ohio",
    "zip": "45470",
    "phone": "937-132-0252"
  }, {
    "id": 31,
    "name": "Ntags",
    "address": "48905 Scofield Parkway",
    "city": "Raleigh",
    "state": "North Carolina",
    "zip": "27626",
    "phone": "919-937-9553"
  }, {
    "id": 32,
    "name": "Flashset",
    "address": "759 Anthes Alley",
    "city": "Washington",
    "state": "District of Columbia",
    "zip": "20268",
    "phone": "202-628-4922"
  }, {
    "id": 33,
    "name": "Voonix",
    "address": "23 7th Junction",
    "city": "Houston",
    "state": "Texas",
    "zip": "77070",
    "phone": "832-397-0233"
  }, {
    "id": 34,
    "name": "Eadel",
    "address": "8002 Warner Place",
    "city": "Evansville",
    "state": "Indiana",
    "zip": "47725",
    "phone": "812-791-8890"
  }, {
    "id": 35,
    "name": "Tazzy",
    "address": "6 Bartelt Park",
    "city": "Mobile",
    "state": "Alabama",
    "zip": "36670",
    "phone": "251-628-2081"
  }, {
    "id": 36,
    "name": "Jazzy",
    "address": "1369 Cottonwood Road",
    "city": "Louisville",
    "state": "Kentucky",
    "zip": "40298",
    "phone": "502-401-8533"
  }, {
    "id": 37,
    "name": "Skiptube",
    "address": "6 Delladonna Alley",
    "city": "Lincoln",
    "state": "Nebraska",
    "zip": "68517",
    "phone": "402-883-8362"
  }, {
    "id": 38,
    "name": "Quaxo",
    "address": "01 Rutledge Point",
    "city": "Orlando",
    "state": "Florida",
    "zip": "32854",
    "phone": "407-648-6013"
  }, {
    "id": 39,
    "name": "Aimbu",
    "address": "582 Westend Hill",
    "city": "Moreno Valley",
    "state": "California",
    "zip": "92555",
    "phone": "951-972-1849"
  }, {
    "id": 40,
    "name": "Yamia",
    "address": "83 Waubesa Street",
    "city": "Honolulu",
    "state": "Hawaii",
    "zip": "96820",
    "phone": "808-700-6312"
  }, {
    "id": 41,
    "name": "Agimba",
    "address": "76947 Morrow Center",
    "city": "Warren",
    "state": "Michigan",
    "zip": "48092",
    "phone": "586-221-4564"
  }, {
    "id": 42,
    "name": "Devify",
    "address": "46638 Golf Course Terrace",
    "city": "Lake Charles",
    "state": "Louisiana",
    "zip": "70616",
    "phone": "337-590-8400"
  }, {
    "id": 43,
    "name": "Fivechat",
    "address": "38 Forster Drive",
    "city": "Winston Salem",
    "state": "North Carolina",
    "zip": "27116",
    "phone": "336-845-0949"
  }, {
    "id": 44,
    "name": "Agivu",
    "address": "5 Hooker Trail",
    "city": "Cincinnati",
    "state": "Ohio",
    "zip": "45218",
    "phone": "513-585-9585"
  }, {
    "id": 45,
    "name": "Skyvu",
    "address": "7 Dayton Center",
    "city": "Kansas City",
    "state": "Missouri",
    "zip": "64130",
    "phone": "816-824-5037"
  }, {
    "id": 46,
    "name": "Twitterbeat",
    "address": "85 Bunker Hill Parkway",
    "city": "Tyler",
    "state": "Texas",
    "zip": "75799",
    "phone": "903-140-1352"
  }, {
    "id": 47,
    "name": "Skyble",
    "address": "822 Vera Hill",
    "city": "Sacramento",
    "state": "California",
    "zip": "94280",
    "phone": "916-423-2693"
  }, {
    "id": 48,
    "name": "Jaloo",
    "address": "6 Bowman Place",
    "city": "Rochester",
    "state": "New York",
    "zip": "14624",
    "phone": "585-950-2600"
  }, {
    "id": 49,
    "name": "Vidoo",
    "address": "314 Carberry Crossing",
    "city": "Tucson",
    "state": "Arizona",
    "zip": "85754",
    "phone": "520-882-1967"
  }, {
    "id": 50,
    "name": "Edgeblab",
    "address": "696 Almo Way",
    "city": "Austin",
    "state": "Texas",
    "zip": "78744",
    "phone": "361-173-4114"
  }, {
    "id": 51,
    "name": "Mudo",
    "address": "4 Dovetail Place",
    "city": "Minneapolis",
    "state": "Minnesota",
    "zip": "55448",
    "phone": "763-939-1352"
  }, {
    "id": 52,
    "name": "Edgepulse",
    "address": "528 Steensland Point",
    "city": "Fort Myers",
    "state": "Florida",
    "zip": "33906",
    "phone": "239-733-4816"
  }, {
    "id": 53,
    "name": "Voomm",
    "address": "684 Toban Terrace",
    "city": "Flint",
    "state": "Michigan",
    "zip": "48505",
    "phone": "810-264-5446"
  }, {
    "id": 54,
    "name": "Jetpulse",
    "address": "9652 Ronald Regan Point",
    "city": "Saginaw",
    "state": "Michigan",
    "zip": "48609",
    "phone": "989-596-0208"
  }, {
    "id": 55,
    "name": "Livetube",
    "address": "42 Chive Circle",
    "city": "Modesto",
    "state": "California",
    "zip": "95397",
    "phone": "209-923-5833"
  }, {
    "id": 56,
    "name": "Kwilith",
    "address": "1 Novick Park",
    "city": "San Jose",
    "state": "California",
    "zip": "95123",
    "phone": "408-413-9464"
  }, {
    "id": 57,
    "name": "Demivee",
    "address": "00120 John Wall Park",
    "city": "Punta Gorda",
    "state": "Florida",
    "zip": "33982",
    "phone": "941-752-9693"
  }, {
    "id": 58,
    "name": "Shuffledrive",
    "address": "1 Express Parkway",
    "city": "Boston",
    "state": "Massachusetts",
    "zip": "02208",
    "phone": "617-734-4427"
  }, {
    "id": 59,
    "name": "Yakidoo",
    "address": "78373 Starling Point",
    "city": "Pensacola",
    "state": "Florida",
    "zip": "32505",
    "phone": "850-965-5347"
  }, {
    "id": 60,
    "name": "Voolia",
    "address": "8 Birchwood Plaza",
    "city": "Phoenix",
    "state": "Arizona",
    "zip": "85099",
    "phone": "602-442-2686"
  }, {
    "id": 61,
    "name": "Topdrive",
    "address": "41 Bunting Street",
    "city": "Buffalo",
    "state": "New York",
    "zip": "14276",
    "phone": "716-724-2316"
  }, {
    "id": 62,
    "name": "Eabox",
    "address": "66 Washington Junction",
    "city": "Charlotte",
    "state": "North Carolina",
    "zip": "28272",
    "phone": "704-379-4819"
  }, {
    "id": 63,
    "name": "Skyble",
    "address": "8013 Morning Pass",
    "city": "Springfield",
    "state": "Illinois",
    "zip": "62776",
    "phone": "217-196-8533"
  }, {
    "id": 64,
    "name": "Brainverse",
    "address": "61 Bunker Hill Hill",
    "city": "Northridge",
    "state": "California",
    "zip": "91328",
    "phone": "818-388-6031"
  }, {
    "id": 65,
    "name": "Trilith",
    "address": "77217 Hallows Hill",
    "city": "Roanoke",
    "state": "Virginia",
    "zip": "24014",
    "phone": "540-115-4728"
  }, {
    "id": 66,
    "name": "Browsebug",
    "address": "65 Lukken Circle",
    "city": "Tallahassee",
    "state": "Florida",
    "zip": "32309",
    "phone": "850-149-4353"
  }, {
    "id": 67,
    "name": "Cogibox",
    "address": "336 Center Pass",
    "city": "San Diego",
    "state": "California",
    "zip": "92170",
    "phone": "619-575-9405"
  }, {
    "id": 68,
    "name": "Realpoint",
    "address": "335 Old Gate Place",
    "city": "Columbus",
    "state": "Georgia",
    "zip": "31998",
    "phone": "706-915-9002"
  }, {
    "id": 69,
    "name": "Brightbean",
    "address": "11977 Hermina Parkway",
    "city": "Louisville",
    "state": "Kentucky",
    "zip": "40293",
    "phone": "502-918-5117"
  }, {
    "id": 70,
    "name": "Skalith",
    "address": "596 Ridge Oak Park",
    "city": "Buffalo",
    "state": "New York",
    "zip": "14210",
    "phone": "716-936-4590"
  }, {
    "id": 71,
    "name": "Livetube",
    "address": "73 Michigan Crossing",
    "city": "Dallas",
    "state": "Texas",
    "zip": "75358",
    "phone": "214-331-2456"
  }, {
    "id": 72,
    "name": "Gabspot",
    "address": "3 Merrick Avenue",
    "city": "Hollywood",
    "state": "Florida",
    "zip": "33023",
    "phone": "305-836-1385"
  }, {
    "id": 73,
    "name": "Zoomlounge",
    "address": "597 Warbler Hill",
    "city": "Arlington",
    "state": "Texas",
    "zip": "76096",
    "phone": "214-802-7742"
  }, {
    "id": 74,
    "name": "Buzzdog",
    "address": "6201 6th Hill",
    "city": "Fresno",
    "state": "California",
    "zip": "93704",
    "phone": "209-415-7049"
  }, {
    "id": 75,
    "name": "Jabbertype",
    "address": "40120 Autumn Leaf Drive",
    "city": "New Bedford",
    "state": "Massachusetts",
    "zip": "02745",
    "phone": "508-650-7385"
  }, {
    "id": 76,
    "name": "Pixope",
    "address": "31376 Lyons Avenue",
    "city": "Greensboro",
    "state": "North Carolina",
    "zip": "27499",
    "phone": "336-854-5107"
  }, {
    "id": 77,
    "name": "Eazzy",
    "address": "5 Lukken Alley",
    "city": "Staten Island",
    "state": "New York",
    "zip": "10305",
    "phone": "718-230-0130"
  }, {
    "id": 78,
    "name": "Babbleopia",
    "address": "586 American Ash Terrace",
    "city": "Atlanta",
    "state": "Georgia",
    "zip": "31119",
    "phone": "770-247-5900"
  }, {
    "id": 79,
    "name": "Lazzy",
    "address": "45 Vidon Lane",
    "city": "New Orleans",
    "state": "Louisiana",
    "zip": "70165",
    "phone": "504-248-6514"
  }, {
    "id": 80,
    "name": "Oloo",
    "address": "30 Waxwing Pass",
    "city": "Topeka",
    "state": "Kansas",
    "zip": "66699",
    "phone": "785-594-8162"
  }, {
    "id": 81,
    "name": "Twimbo",
    "address": "81278 Sycamore Plaza",
    "city": "Saint Louis",
    "state": "Missouri",
    "zip": "63169",
    "phone": "314-130-9994"
  }, {
    "id": 82,
    "name": "DabZ",
    "address": "7 Gulseth Street",
    "city": "Charlottesville",
    "state": "Virginia",
    "zip": "22908",
    "phone": "434-743-2884"
  }, {
    "id": 83,
    "name": "Skiptube",
    "address": "0 Memorial Place",
    "city": "Saint Joseph",
    "state": "Missouri",
    "zip": "64504",
    "phone": "816-287-6764"
  }, {
    "id": 84,
    "name": "Zoombox",
    "address": "910 Gulseth Point",
    "city": "Roanoke",
    "state": "Virginia",
    "zip": "24009",
    "phone": "540-193-5119"
  }, {
    "id": 85,
    "name": "Dablist",
    "address": "8939 Bunker Hill Place",
    "city": "Idaho Falls",
    "state": "Idaho",
    "zip": "83405",
    "phone": "208-166-9639"
  }, {
    "id": 86,
    "name": "Omba",
    "address": "8490 Butterfield Lane",
    "city": "Cleveland",
    "state": "Ohio",
    "zip": "44105",
    "phone": "216-307-1734"
  }, {
    "id": 87,
    "name": "Youfeed",
    "address": "9241 Kipling Parkway",
    "city": "Washington",
    "state": "District of Columbia",
    "zip": "20210",
    "phone": "202-881-6767"
  }, {
    "id": 88,
    "name": "Eadel",
    "address": "5 Carioca Court",
    "city": "Jamaica",
    "state": "New York",
    "zip": "11431",
    "phone": "212-457-8792"
  }, {
    "id": 89,
    "name": "Oodoo",
    "address": "76 Hauk Lane",
    "city": "Camden",
    "state": "New Jersey",
    "zip": "08104",
    "phone": "856-515-9389"
  }, {
    "id": 90,
    "name": "Realmix",
    "address": "145 Harbort Plaza",
    "city": "Tampa",
    "state": "Florida",
    "zip": "33605",
    "phone": "813-992-6142"
  }, {
    "id": 91,
    "name": "Kimia",
    "address": "58 Rigney Park",
    "city": "Hartford",
    "state": "Connecticut",
    "zip": "06160",
    "phone": "860-129-5341"
  }, {
    "id": 92,
    "name": "Thoughtstorm",
    "address": "6180 Aberg Point",
    "city": "Charleston",
    "state": "South Carolina",
    "zip": "29416",
    "phone": "843-480-3585"
  }, {
    "id": 93,
    "name": "Devify",
    "address": "7101 Twin Pines Drive",
    "city": "Chicago",
    "state": "Illinois",
    "zip": "60657",
    "phone": "312-573-2652"
  }, {
    "id": 94,
    "name": "Livefish",
    "address": "868 Ludington Place",
    "city": "Terre Haute",
    "state": "Indiana",
    "zip": "47812",
    "phone": "812-737-2393"
  }, {
    "id": 95,
    "name": "Bubblemix",
    "address": "14575 Kensington Alley",
    "city": "Winston Salem",
    "state": "North Carolina",
    "zip": "27116",
    "phone": "336-210-9623"
  }, {
    "id": 96,
    "name": "Oba",
    "address": "648 Fuller Street",
    "city": "Worcester",
    "state": "Massachusetts",
    "zip": "01654",
    "phone": "508-873-4507"
  }, {
    "id": 97,
    "name": "Zoomdog",
    "address": "68546 Moulton Road",
    "city": "Washington",
    "state": "District of Columbia",
    "zip": "20535",
    "phone": "202-599-8763"
  }, {
    "id": 98,
    "name": "Zooxo",
    "address": "46396 Jay Road",
    "city": "Boston",
    "state": "Massachusetts",
    "zip": "02203",
    "phone": "617-394-4750"
  }, {
    "id": 99,
    "name": "Eayo",
    "address": "6449 Lillian Street",
    "city": "Washington",
    "state": "District of Columbia",
    "zip": "20244",
    "phone": "202-478-6798"
  }, {
    "id": 100,
    "name": "Shuffletag",
    "address": "2699 Gina Crossing",
    "city": "Fayetteville",
    "state": "North Carolina",
    "zip": "28305",
    "phone": "910-377-2269"
  }]
}